ONEWEB-0262             
1 48980U 21060P   23059.10763656  .00000083  00000+0  18324-3 0  9992
2 48980  87.9009 108.7426 0001557 118.4846 241.6441 13.16596987 82357
ONEWEB-0262             
1 48980U 21060P   23059.56361660  .00000044  00000+0  81162-4 0  9999
2 48980  87.9009 108.6516 0001574 118.5487 241.5802 13.16597799 81112
ONEWEB-0262             
1 48980U 21060P   23059.86760417  .00000010  00000+0 -69147-5 0  9999
2 48980  87.9007 108.5910 0001580 118.2715 241.8576 13.16597168 81150
ONEWEB-0262             
1 48980U 21060P   23060.17159320  .00001616  00000+0  41932-2 0  9991
2 48980  87.9008 108.5305 0001571 119.5775 240.5513 13.16590059 82496
ONEWEB-0262             
1 48980U 21060P   23060.85556287 -.00000051  00000+0 -16640-3 0  9992
2 48980  87.9006 108.3940 0001628 117.1112 243.0185 13.16596744 81285
ONEWEB-0262             
1 48980U 21060P   23061.61553376 -.00000343  00000+0 -93138-3 0  9994
2 48980  87.9003 108.2421 0001610 118.2308 241.8986 13.16594399 81385
ONEWEB-0262             
1 48980U 21060P   23062.14751238 -.00000328  00000+0 -89035-3 0  9994
2 48980  87.9004 108.1358 0001636 118.0631 242.0666 13.16594651 81456
ONEWEB-0262             
1 48980U 21060P   23062.14751238 -.00000328  00000+0 -89035-3 0  9994
2 48980  87.9004 108.1358 0001636 118.0631 242.0666 13.16594651 82750
ONEWEB-0262             
1 48980U 21060P   23062.83148525 -.00000175  00000+0 -49247-3 0  9990
2 48980  87.9005 107.9995 0001632 117.9244 242.2052 13.16594116 81542
